satname,norad_id,inclination_deg,eccentricity,mean_motion_rev_per_day,perigee_km,apogee_km,l1,l2
STARLINK-1456,45673,53.0488,0.0001573,15.49530271,417.0301612624762,419.16825717389656,1 45673U 20035S   26061.33136451  .00030974  00000+0  55835-3 0  9997,2 45673  53.0488  81.6245 0001573  93.4105 266.7082 15.49530271317884
STARLINK-1457,45674,53.0467,0.0009798,15.76584484,333.5435705310756,346.70867895031824,1 45674U 20035T   26061.91668981  .00109428  00000+0  66636-3 0  9992,2 45674  53.0467  56.2970 0009798  42.3971 115.8353 15.76584484  6005
STARLINK-1458,45675,53.0526,0.0006013,15.42059177,435.9330626303599,444.13259366569037,1 45675U 20035U   26061.35734495  .00076245  00000+0  17490-2 0  9998,2 45675  53.0526  90.2967 0006013  52.1431 308.0117 15.42059177317720
STARLINK-1460,45676,53.1253,7.24e-05,15.23288388,495.4322048187805,496.4275697040566,1 45676U 20035V   26061.91668981  .00121487  00000+0  49879-2 0  9992,2 45676  53.1253  96.2069 0000724  87.7195 271.1986 15.23288388  5783
STARLINK-1392,45677,53.1468,0.0001216,15.27546305,482.3156603476682,483.9843253443287,1 45677U 20035W   26061.91668981  .01758952  00000+0  58875-1 0  9992,2 45677  53.1468  96.1829 0001216  63.4741 248.6573 15.27546305  5837
STARLINK-1394,45679,53.0498,0.0002223,15.48419304,419.8380912652274,422.86114301520684,1 45679U 20035Y   26061.45562481  .00073124  00000+0  13518-2 0  9997,2 45679  53.0498  71.2322 0002223  83.0103 277.1157 15.48419304318037
STARLINK-1402,45685,53.0485,8.12e-05,15.43469154,435.3265793003129,436.4331756412139,1 45685U 20035AE  26061.27624391  .00081929  00000+0  17916-2 0  9991,2 45685  53.0485  58.6544 0000812 258.6630 101.4284 15.43469154318204
STARLINK-1404,45686,53.1621,0.0001336,15.30189086,474.33204465959625,476.1632690399074,1 45686U 20035AF  26061.38062485  .00001038  00000+0  47172-4 0  9996,2 45686  53.1621  83.6484 0001336  94.1023 266.0131 15.30189086317858
STARLINK-1413,45689,53.1605,0.0001422,15.3019097,474.26748100596615,476.2165820025266,1 45689U 20035AJ  26061.45224274  .00000773  00000+0  38232-4 0  9995,2 45689  53.1605  83.1955 0001422  82.9842 277.1321 15.30190970317781
STARLINK-1417,45693,53.0504,0.0002532,15.12020699,528.2891615264025,531.7874615041537,1 45693U 20035AN  26061.32821147  .00030490  00000+0  17641-2 0  9996,2 45693  53.0504  87.6623 0002532 217.1828 142.8989 15.12020699317781
STARLINK-1420,45695,53.0543,0.0003418,15.51961333,408.67954134488264,413.3205954448358,1 45695U 20035AQ  26061.27614039  .00099325  00000+0  16119-2 0  9993,2 45695  53.0543  58.1368 0003418  65.7464 294.3901 15.51961333318209
STARLINK-1422,45696,53.1605,0.0001506,15.30201445,474.17864074129284,476.242869085072,1 45696U 20035AR  26061.45961083  .00004097  00000+0  15037-3 0  9999,2 45696  53.1605  83.1645 0001506  89.3678 270.7496 15.30201445317867
STARLINK-1351,45697,53.0536,0.0002837,15.50708779,412.72832098285653,416.5825514111548,1 45697U 20035AS  26061.37579237  .00131525  00000+0  22204-2 0  9997,2 45697  53.0536  56.7989 0002837  84.8555 275.2777 15.50708779318237
STARLINK-1398,45699,53.0386,0.0004215,15.90606203,297.77033412363835,303.40049712000837,1 45699U 20035AU  26061.91668981  .00250516  34193-4  80191-3 0  9991,2 45699  53.0386 333.8457 0004215 129.8244 160.4242 15.90606203  6046
STARLINK-1400,45700,53.0517,0.0007483,15.49003882,414.55203006624106,424.7255813370539,1 45700U 20035AV  26061.78769688  .00038180  00000+0  69792-3 0  9995,2 45700  53.0517  56.0648 0007483  64.6904 295.4878 15.49003882318273
STARLINK-1403,45701,53.0552,0.0001522,15.0641363,546.1157525737672,548.2238159588978,1 45701U 20035AW  26061.57541427  .00001432  00000+0  11497-3 0  9991,2 45701  53.0552  68.5566 0001522  89.6416 270.4748 15.06413630318079
STARLINK-1407,45703,53.036,0.0011701,15.58151474,385.08421168989116,400.93004317690975,1 45703U 20035AY  26061.91668981  .00098719  00000+0  12735-2 0  9995,2 45703  53.0360 348.7142 0011701  79.2764 356.0920 15.58151474  5979
STARLINK-1411,45706,53.0458,0.0005433,15.60385368,382.86781986239475,390.21832122704836,1 45706U 20035BB  26061.26777623  .00105175  00000+0  12481-2 0  9993,2 45706  53.0458  17.6585 0005433  95.4864 264.6768 15.60385368318761
STARLINK-1423,45710,53.0515,0.0006803,15.51095138,408.9070185675473,418.14775713365725,1 45710U 20035BF  26061.25034434  .00090170  00000+0  15109-2 0  9991,2 45710  53.0515  57.8161 0006803  75.1775 284.9987 15.51095138318192
STARLINK-1433,45711,53.0509,0.0006952,15.53260642,402.4962704209074,411.93062168109736,1 45711U 20035BG  26061.79964134  .00105556  00000+0  16320-2 0  9991,2 45711  53.0509  54.3195 0006952  69.7524 290.4232 15.53260642318293
STARLINK-1434,45712,53.0566,0.0004882,15.25802888,485.02334137878006,491.7278042548787,1 45712U 20035BH  26061.36569404  .00050208  00000+0  19382-2 0  9990,2 45712  53.0566  53.9348 0004882  57.7255 302.4215 15.25802888318276
STARLINK-1465,45731,53.0515,0.0003019,15.48618297,418.71453918429324,422.8197174969846,1 45731U 20038B   26061.80710505  .00094498  00000+0  17276-2 0  9992,2 45731  53.0515 256.1523 0003019 202.6384 157.4491 15.48618297315318
STARLINK-1471,45735,53.047,0.0001619,15.48423096,420.2376810125743,422.43935118468653,1 45735U 20038F   26061.61204892  .00031021  00000+0  58125-3 0  9994,2 45735  53.0470 175.9205 0001619 194.7836 165.3124 15.48423096316430
STARLINK-1480,45741,53.0503,0.0008293,15.46961684,419.9777880949123,431.2624996937757,1 45741U 20038M   26061.75483155  .00052417  00000+0  10233-2 0  9996,2 45741  53.0503 250.3955 0008293 155.4596 204.6807 15.46961684315405
STARLINK-1500,45744,53.0369,0.0002162,15.34307811,461.4982101598371,464.4563079654563,1 45744U 20038Q   26061.77406916  .00031977  00000+0  95619-3 0  9991,2 45744  53.0369 225.1826 0002162 209.2881 150.7999 15.34307811315753
STARLINK-1504,45746,53.0234,0.0001586,15.52602496,408.0543835550625,410.2073049152541,1 45746U 20038S   26061.60723839  .00037247  00000+0  60011-3 0  9995,2 45746  53.0234 176.3408 0001586 165.3717 194.7337 15.52602496316413
STARLINK-1506,45747,53.075,0.0002797,15.25805657,486.44670410294657,490.28782658898126,1 45747U 20038T   26061.78323837  .00009760  00000+0  38955-3 0  9990,2 45747  53.0750 234.3025 0002797 195.0424 165.0491 15.25805657315636
STARLINK-1464,45751,53.0509,0.0003141,15.4297492,435.19413615292615,439.47561558534653,1 45751U 20038X   26061.76836894  .00040260  00000+0  90460-3 0  9994,2 45751  53.0509 237.5109 0003141 194.6288 165.4627 15.42974920315586
STARLINK-1477,45754,53.0477,0.0001536,15.13838736,523.4460656471065,525.5665576724487,1 45754U 20038AA  26061.76835981  .00033769  00000+0  18546-2 0  9993,2 45754  53.0477 244.4113 0001536  83.3469 276.7698 15.13838736315481
STARLINK-1478,45755,53.0518,0.0004952,15.53420259,403.38875728469066,410.10850801526794,1 45755U 20038AB  26061.75283392  .00111010  00000+0  17056-2 0  9997,2 45755  53.0518 231.3870 0004952 189.9707 170.1205 15.53420259315657
STARLINK-1484,45756,52.999,0.0006855,15.96975423,278.2496670521441,287.38183327261595,1 45756U 20038AC  26061.91668981  .00428958  86669-4  97254-3 0  9998,2 45756  52.9990  91.5999 0006855  32.7054  67.3976 15.96975423  6061
STARLINK-1493,45759,53.0528,0.0001491,15.48998002,418.64245766830663,420.66955954347304,1 45759U 20038AF  26061.91668981  .00111107  00000+0  19990-2 0  9996,2 45759  53.0528 236.9782 0001491  72.1731 183.1917 15.48998002  5920
STARLINK-1494,45760,53.0488,0.0003708,15.7214383,350.27522643146585,355.26686783922196,1 45760U 20038AG  26061.63498304  .00102589  00000+0  75950-3 0  9990,2 45760  53.0488 186.6548 0003708 333.9648  26.1182 15.72143830316288
STARLINK-1502,45764,53.0525,0.0001213,15.45793857,428.22076743908474,429.87219015103983,1 45764U 20038AL  26061.77144758  .00089805  00000+0  18120-2 0  9990,2 45764  53.0525 239.0626 0001213  51.1918 308.9197 15.45793857315569
STARLINK-1470,45772,53.0469,5.26e-05,15.27226229,483.7476640434361,484.4695722824663,1 45772U 20038AU  26061.67415315  .00052377  00000+0  19363-2 0  9992,2 45772  53.0469 206.8645 0000526 151.4036 208.6991 15.27226229316001
STARLINK-1482,45773,53.1606,0.000112,15.30185357,474.4912107979562,476.0263714551684,1 45773U 20038AV  26061.82294041 -.00002385  00000+0 -68454-4 0  9994,2 45773  53.1606 222.9102 0001120 100.6714 259.4413 15.30185357315791
STARLINK-1496,45780,53.0515,0.0004464,15.46642572,423.5183564166764,429.59358630150564,1 45780U 20038BC  26061.91668981  .00134624  00000+0  26183-2 0  9991,2 45780  53.0515 210.1975 0004464 184.5073 129.0472 15.46642572  5941
STARLINK-1513,45786,53.1619,0.000102,15.30197074,474.52476313962416,475.92284874403686,1 45786U 20038BJ  26061.76713135 -.00000331  00000+0  95643-6 0  9991,2 45786  53.1619 223.3019 0001020  79.8006 280.3110 15.30197074315786
STARLINK-1522,46027,53.0635,0.0001453,15.08894474,538.5717449200456,540.582032576116,1 46027U 20055A   26061.91668981 -.00022148  00000+0 -13755-2 0  9995,2 46027  53.0635 157.0011 0001453  64.8416 245.0176 15.08894474  5785
STARLINK-1523,46028,53.0688,0.0001511,15.10527712,533.5450193180923,535.6340452761524,1 46028U 20055B   26061.91668981  .00006164  00000+0  38693-3 0  9993,2 46028  53.0688 156.9869 0001511 102.0710 135.4256 15.10527712  5434
STARLINK-1526,46029,53.0713,0.0001219,15.1104756,532.1615093783248,533.8464455486301,1 46029U 20055C   26061.91668981  .00007894  00000+0  48356-3 0  9992,2 46029  53.0713 156.9747 0001219 106.0863 178.9263 15.11047560  5829
STARLINK-1555,46032,53.0641,1.72e-05,15.0956808,537.3998849085374,537.6377834692348,1 46032U 20055F   26061.91668981  .00035065  00000+0  21666-2 0  9991,2 46032  53.0641 157.0075 0000172 106.5042 239.9958 15.09568080  5674
STARLINK-1556,46033,53.0688,0.0001914,15.10679645,532.8030300667679,535.4490443574123,1 46033U 20055G   26061.91668981  .00039099  00000+0  23399-2 0  9998,2 46033  53.0688 156.9889 0001914  56.1366  40.8149 15.10679645  5786
